[{"OBJECT_NAME":"Z-SAT","OBJECT_ID":"2021-102E","EPOCH":"2026-03-09T23:34:39.244224","MEAN_MOTION":15.17426546,"ECCENTRICITY":0.00156122,"INCLINATION":97.3462,"RA_OF_ASC_NODE":107.3084,"ARG_OF_PERICENTER":229.8431,"MEAN_ANOMALY":130.1437,"EPHEMERIS_TYPE":0,"CLASSIFICATION_TYPE":"U","NORAD_CAT_ID":49399,"ELEMENT_SET_NO":999,"REV_AT_EPOCH":23839,"BSTAR":0.00028947153,"MEAN_MOTION_DOT":5.742e-5,"MEAN_MOTION_DDOT":0},{"OBJECT_NAME":"STARLINK-30474","OBJECT_ID":"2023-146G","EPOCH":"2026-03-09T22:22:25.161888","MEAN_MOTION":15.08097712,"ECCENTRICITY":0.00016808,"INCLINATION":42.9999,"RA_OF_ASC_NODE":311.9544,"ARG_OF_PERICENTER":232.2311,"MEAN_ANOMALY":127.8382,"EPHEMERIS_TYPE":0,"CLASSIFICATION_TYPE":"U","NORAD_CAT_ID":57897,"ELEMENT_SET_NO":999,"REV_AT_EPOCH":13710,"BSTAR":0.033869438,"MEAN_MOTION_DOT":0.00562719,"MEAN_MOTION_DDOT":0}]
